[{"OBJECT_NAME":"BUFENG 1B","OBJECT_ID":"2019-032B","EPOCH":"2026-03-09T19:57:27.457920","MEAN_MOTION":15.25619535,"ECCENTRICITY":0.00242037,"INCLINATION":44.9701,"RA_OF_ASC_NODE":192.0248,"ARG_OF_PERICENTER":123.8847,"MEAN_ANOMALY":236.4342,"EPHEMERIS_TYPE":0,"CLASSIFICATION_TYPE":"U","NORAD_CAT_ID":44311,"ELEMENT_SET_NO":999,"REV_AT_EPOCH":37256,"BSTAR":0.00059375374,"MEAN_MOTION_DOT":0.00015236,"MEAN_MOTION_DDOT":0},{"OBJECT_NAME":"STARLINK-31330","OBJECT_ID":"2024-027W","EPOCH":"2026-03-09T22:10:48.759744","MEAN_MOTION":15.30186191,"ECCENTRICITY":0.00011314,"INCLINATION":53.1607,"RA_OF_ASC_NODE":305.7526,"ARG_OF_PERICENTER":84.7724,"MEAN_ANOMALY":275.3406,"EPHEMERIS_TYPE":0,"CLASSIFICATION_TYPE":"U","NORAD_CAT_ID":58951,"ELEMENT_SET_NO":999,"REV_AT_EPOCH":11740,"BSTAR":4.6377279e-5,"MEAN_MOTION_DOT":1.014e-5,"MEAN_MOTION_DDOT":0}]
